NORAD_CAT_ID,OBJECT_NAME,OBJECT_TYPE,EPOCH,MEAN_MOTION,ECCENTRICITY,INCLINATION,RA_OF_ASC_NODE,ARG_OF_PERICENTER,MEAN_ANOMALY,BSTAR,MEAN_MOTION_DOT,MEAN_MOTION_DDOT,TLE_LINE0,TLE_LINE1,TLE_LINE2,SEMIMAJOR_AXIS,PERIOD,APOGEE,PERIGEE,DECAYED
53562.0,STARLINK-4565,PAYLOAD,2024-05-03 12:11:33,15.08857158,0.0001388,53.2166,205.2736,86.7177,273.3974,0.00053785,8.286e-05,0.0,0 STARLINK-4565,1 53562U 22101AM  24124.50802735  .00008286  00000-0  53785-3 0  9995,2 53562  53.2166 205.2736 0001388  86.7177 273.3974 15.08857158 95172,6917.828,95.436,540.653,538.733,0.0
53562.0,STARLINK-4565,PAYLOAD,2024-05-04 05:40:48,15.0883328,0.0001448,53.2164,202.0022,80.2693,279.8463,-8.2512e-05,-1.601e-05,0.0,0 STARLINK-4565,1 53562U 22101AM  24125.23667728 -.00001601  00000-0 -82512-4 0  9994,2 53562  53.2164 202.0022 0001448  80.2693 279.8463 15.08833280 94625,6917.901,95.438,540.768,538.764,0.0
53562.0,STARLINK-4565,PAYLOAD,2024-05-04 12:02:21,15.08787962,0.0001475,53.2152,200.8127,62.5758,297.5384,-0.0014447,-0.00023174,0.0,0 STARLINK-4565,1 53562U 22101AM  24125.50164265 -.00023174  00000-0 -14447-2 0  9991,2 53562  53.2152 200.8127 0001475  62.5758 297.5384 15.08787962 94667,6918.039,95.441,540.925,538.884,0.0
53562.0,STARLINK-4565,PAYLOAD,2024-05-05 05:31:38,15.08810401,0.0001218,53.2166,197.5445,69.2911,290.8211,0.00032303,4.853e-05,0.0,0 STARLINK-4565,1 53562U 22101AM  24126.23030245  .00004853  00000-0  32303-3 0  9995,2 53562  53.2166 197.5445 0001218  69.2911 290.8211 15.08810401 94779,6917.971,95.439,540.678,538.993,0.0
53562.0,STARLINK-4565,PAYLOAD,2024-05-05 10:17:47,15.08834576,0.0001577,53.2164,196.6504,102.3196,257.7973,0.0011822,0.00018574,0.0,0 STARLINK-4565,1 53562U 22101AM  24126.42902138  .00018574  00000-0  11822-2 0  9992,2 53562  53.2164 196.6504 0001577 102.3196 257.7973 15.08834576 94805,6917.897,95.438,540.853,538.671,0.0
53562.0,STARLINK-4565,PAYLOAD,2024-05-05 13:28:33,15.08839342,0.0001474,53.2163,196.0556,94.3032,265.8129,0.0013289,0.00020924,0.0,0 STARLINK-4565,1 53562U 22101AM  24126.56150269  .00020924  00000-0  13289-2 0  9998,2 53562  53.2163 196.0556 0001474  94.3032 265.8129 15.08839342 95484,6917.882,95.438,540.767,538.728,0.0
53562.0,STARLINK-4565,PAYLOAD,2024-05-05 21:25:29,15.08853127,0.000151,53.2162,194.5691,93.7757,266.3408,0.0013722,0.00021626,0.0,0 STARLINK-4565,1 53562U 22101AM  24126.89270071  .00021626  00000-0  13722-2 0  9990,2 53562  53.2162 194.5691 0001510  93.7757 266.3408 15.08853127 95533,6917.84,95.437,540.75,538.661,0.0
53562.0,STARLINK-4565,PAYLOAD,2024-05-06 11:43:56,15.08861918,0.0001367,53.2155,191.8914,92.1623,267.9525,0.00028165,4.2e-05,0.0,0 STARLINK-4565,1 53562U 22101AM  24127.48884900  .00004200  00000-0  28165-3 0  9995,2 53562  53.2155 191.8914 0001367  92.1623 267.9525 15.08861918 94968,6917.813,95.436,540.624,538.733,0.0
53562.0,STARLINK-4565,PAYLOAD,2024-05-07 13:10:05,15.08864704,0.0001388,53.2154,187.133,89.7488,270.3663,0.00018345,2.635e-05,0.0,0 STARLINK-4565,1 53562U 22101AM  24128.54867637  .00002635  00000-0  18345-3 0  9990,2 53562  53.2154 187.1330 0001388  89.7488 270.3663 15.08864704 95127,6917.805,95.436,540.63,538.71,0.0
53562.0,STARLINK-4565,PAYLOAD,2024-05-08 03:28:34,15.0884786,0.0001404,53.2148,184.4558,88.6283,271.487,-5.1286e-05,-1.104e-05,0.0,0 STARLINK-4565,1 53562U 22101AM  24129.14484072 -.00001104  00000-0 -51286-4 0  9999,2 53562  53.2148 184.4558 0001404  88.6283 271.4870 15.08847860 95218,6917.856,95.437,540.693,538.75,0.0
53562.0,STARLINK-4565,PAYLOAD,2024-05-08 09:50:06,15.08849106,0.0001408,53.2153,183.2667,95.3666,264.7487,-2.3251e-05,-6.58e-06,0.0,0 STARLINK-4565,1 53562U 22101AM  24129.40979867 -.00000658  00000-0 -23251-4 0  9993,2 53562  53.2153 183.2667 0001408  95.3666 264.7487 15.08849106 95917,6917.853,95.437,540.692,538.744,0.0
53562.0,STARLINK-4565,PAYLOAD,2024-05-08 20:57:48,15.08839425,0.0001303,53.2137,181.1849,107.2113,252.9022,-5.1794e-05,-1.112e-05,0.0,0 STARLINK-4565,1 53562U 22101AM  24129.87348188 -.00001112  00000-0 -51794-4 0  9999,2 53562  53.2137 181.1849 0001303 107.2113 252.9022 15.08839425 95986,6917.882,95.438,540.649,538.846,0.0
53562.0,STARLINK-4565,PAYLOAD,2024-05-09 03:19:21,15.08847488,0.0001429,53.2144,179.9953,117.2835,242.8303,-0.00012787,-2.323e-05,0.0,0 STARLINK-4565,1 53562U 22101AM  24130.13844409 -.00002323  00000-0 -12787-3 0  9990,2 53562  53.2144 179.9953 0001429 117.2835 242.8303 15.08847488 95366,6917.858,95.437,540.711,538.734,0.0
53562.0,STARLINK-4565,PAYLOAD,2024-05-09 09:40:54,15.08841709,0.0001203,53.2148,178.8085,91.142,268.971,-0.00011168,-2.065e-05,0.0,0 STARLINK-4565,1 53562U 22101AM  24130.40340762 -.00002065  00000-0 -11168-3 0  9998,2 53562  53.2148 178.8085 0001203  91.1420 268.9710 15.08841709 96063,6917.875,95.437,540.572,538.908,0.0
53562.0,STARLINK-4565,PAYLOAD,2024-05-10 12:42:26,15.08850126,0.0001399,53.2161,173.7524,92.7583,267.3569,0.00012219,1.658e-05,0.0,0 STARLINK-4565,1 53562U 22101AM  24131.52947873  .00001658  00000-0  12219-3 0  9991,2 53562  53.2161 173.7524 0001399  92.7583 267.3569 15.08850126 95576,6917.849,95.437,540.682,538.747,0.0
53562.0,STARLINK-4565,PAYLOAD,2024-05-11 09:22:26,15.08892101,0.0001315,53.215,169.8865,89.7011,270.4131,0.00099752,0.00015646,0.0,0 STARLINK-4565,1 53562U 22101AM  24132.39058717  .00015646  00000-0  99752-3 0  9996,2 53562  53.2150 169.8865 0001315  89.7011 270.4131 15.08892101 95702,6917.721,95.434,540.496,538.676,0.0
53562.0,STARLINK-4565,PAYLOAD,2024-05-11 18:54:45,15.08879516,0.000144,53.2153,168.1012,85.2505,274.8651,0.00064889,0.00010065,0.0,0 STARLINK-4565,1 53562U 22101AM  24132.78802208  .00010065  00000-0  64889-3 0  9994,2 53562  53.2153 168.1012 0001440  85.2505 274.8651 15.08879516 95765,6917.76,95.435,540.621,538.628,0.0
53562.0,STARLINK-4565,PAYLOAD,2024-05-12 09:13:16,15.08772076,0.0001416,53.2154,165.4248,74.8116,285.3033,-0.0016383,-0.00026218,0.0,0 STARLINK-4565,1 53562U 22101AM  24133.38422101 -.00026218  00000-0 -16383-2 0  9995,2 53562  53.2154 165.4248 0001416  74.8116 285.3033 15.08772076 95856,6918.088,95.442,540.933,538.973,0.0
53562.0,STARLINK-4565,PAYLOAD,2024-05-12 13:59:26,15.08769198,0.0001378,53.2154,164.5308,70.9835,289.1306,-0.001464,-0.00023467,0.0,0 STARLINK-4565,1 53562U 22101AM  24133.58294843 -.00023467  00000-0 -14640-2 0  9994,2 53562  53.2154 164.5308 0001378  70.9835 289.1306 15.08769198 96548,6918.097,95.442,540.915,539.008,0.0
53562.0,STARLINK-4565,PAYLOAD,2024-05-12 18:45:34,15.08830507,0.0001398,53.2156,163.6409,60.9267,299.1865,0.00014805,2.068e-05,0.0,0 STARLINK-4565,1 53562U 22101AM  24133.78165424  .00002068  00000-0  14805-3 0  9994,2 53562  53.2156 163.6409 0001398  60.9267 299.1865 15.08830507 95916,6917.909,95.438,540.742,538.807,0.0
53562.0,STARLINK-4565,PAYLOAD,2024-05-13 12:14:51,15.08822985,0.0001532,53.2159,160.372,84.4989,275.6178,0.00068116,0.00010564,0.0,0 STARLINK-4565,1 53562U 22101AM  24134.51032194  .00010564  00000-0  68116-3 0  9997,2 53562  53.2159 160.3720 0001532  84.4989 275.6178 15.08822985 96021,6917.932,95.439,540.857,538.738,0.0
53562.0,STARLINK-4565,PAYLOAD,2024-05-13 18:36:24,15.08831407,0.0001381,53.2159,159.1825,86.2847,273.8303,0.00048311,7.407e-05,0.0,0 STARLINK-4565,1 53562U 22101AM  24134.77527947  .00007407  00000-0  48311-3 0  9997,2 53562  53.2159 159.1825 0001381  86.2847 273.8303 15.08831407 96724,6917.907,95.438,540.727,538.816,0.0
53562.0,STARLINK-4565,PAYLOAD,2024-05-14 10:30:16,15.08829588,0.0001476,53.2156,156.2087,80.5612,279.5547,0.0010556,0.00016547,0.0,0 STARLINK-4565,1 53562U 22101AM  24135.43768832  .00016547  00000-0  10556-2 0  9995,2 53562  53.2156 156.2087 0001476  80.5612 279.5547 15.08829588 96822,6917.912,95.438,540.798,538.756,0.0
53562.0,STARLINK-4565,PAYLOAD,2024-05-14 18:27:11,15.0884539,0.0001447,53.2157,154.7217,81.9148,278.2008,0.0009491,0.00014851,0.0,0 STARLINK-4565,1 53562U 22101AM  24135.76888258  .00014851  00000-0  94910-3 0  9999,2 53562  53.2157 154.7217 0001447  81.9148 278.2008 15.08845390 96218,6917.864,95.437,540.73,538.728,0.0
53562.0,STARLINK-4565,PAYLOAD,2024-05-15 10:21:00,15.08883472,0.0001368,53.2151,151.7481,83.5007,276.6141,0.00061983,9.602e-05,0.0,0 STARLINK-4565,1 53562U 22101AM  24136.43125610  .00009602  00000-0  61983-3 0  9992,2 53562  53.2151 151.7481 0001368  83.5007 276.6141 15.08883472 96310,6917.748,95.435,540.559,538.666,0.0
53562.0,STARLINK-4565,PAYLOAD,2024-05-16 05:25:37,15.08867405,0.0001603,53.2153,148.1784,99.2215,260.8958,0.00014507,2.023e-05,0.0,0 STARLINK-4565,1 53562U 22101AM  24137.22612689  .00002023  00000-0  14507-3 0  9997,2 53562  53.2153 148.1784 0001603  99.2215 260.8958 15.08867405 96437,6917.797,95.436,540.771,538.553,0.0
53562.0,STARLINK-4565,PAYLOAD,2024-05-16 07:01:00,15.08865985,0.0001614,53.2158,147.8801,97.5882,262.5294,9.4525e-05,1.218e-05,0.0,0 STARLINK-4565,1 53562U 22101AM  24137.29236634  .00001218  00000-0  94525-4 0  9990,2 53562  53.2158 147.8801 0001614  97.5882 262.5294 15.08865985 97109,6917.801,95.436,540.782,538.549,0.0
53562.0,STARLINK-4565,PAYLOAD,2024-05-16 18:08:42,15.08857472,0.0001495,53.215,145.799,97.7517,262.3645,-3.6646e-05,-8.71e-06,0.0,0 STARLINK-4565,1 53562U 22101AM  24137.75604364 -.00000871  00000-0 -36646-4 0  9996,2 53562  53.2150 145.7990 0001495  97.7517 262.3645 15.08857472 96515,6917.827,95.436,540.726,538.658,0.0
53562.0,STARLINK-4565,PAYLOAD,2024-05-17 05:16:24,15.0884701,0.0001561,53.2163,143.7175,100.1537,259.9631,-0.00017318,-3.044e-05,0.0,0 STARLINK-4565,1 53562U 22101AM  24138.21972501 -.00003044  00000-0 -17318-3 0  9998,2 53562  53.2163 143.7175 0001561 100.1537 259.9631 15.08847010 96588,6917.859,95.437,540.804,538.644,0.0
53562.0,STARLINK-4565,PAYLOAD,2024-05-17 06:51:47,15.08845723,0.0001543,53.2162,143.4203,100.9096,259.207,-0.00018993,-3.31e-05,0.0,0 STARLINK-4565,1 53562U 22101AM  24138.28596717 -.00003310  00000-0 -18993-3 0  9992,2 53562  53.2162 143.4203 0001543 100.9096 259.2070 15.08845723 97258,6917.863,95.437,540.795,538.66,0.0
